IRIDIUM 136             
1 42962U 17061H   24204.91725487  .00000033  00000+0  46976-5 0  9995
2 42962  86.3992 315.3865 0002392 100.9022 259.2443 14.34217026355320
